COSMOS 2588             
1 64095U 25109A   26068.81179522  .00009169  00000+0  32611-3 0  9998
2 64095  72.9704  73.5401 0005019 308.6780  51.3966 15.29122656 44425
STARLINK-35129          
1 66077U 25235V   26068.71446017  .00037870  00000+0  12838-2 0  9993
2 66077  53.1573 245.2668 0001128  24.1531 335.9522 15.30211666 22928
